IRIDIUM 166             
1 43570U 18061B   25034.58966326  .00000026  00000+0  22273-5 0  9992
2 43570  86.3933 265.0709 0002448  85.6495 274.4980 14.34212366341933
IRIDIUM 158             
1 43571U 18061C   25034.69746814  .00000546  00000+0  18772-3 0  9997
2 43571  86.3934 265.0356 0002121  93.5539 266.5899 14.34224360341925
IRIDIUM 165             
1 43572U 18061D   25034.72285249  .00000298  00000+0  99440-4 0  9998
2 43572  86.3936 265.0615 0002191  81.4375 278.7069 14.34218191341948
IRIDIUM 155             
1 43573U 18061E   25034.61502701  .00000539  00000+0  18538-3 0  9998
2 43573  86.3929 265.0005 0002267  93.2054 266.9401 14.34219146341897
IRIDIUM 154             
1 43574U 18061F   25034.66576955  .00000501  00000+0  17192-3 0  9990
2 43574  86.3934 265.0879 0002053  84.1622 275.9808 14.34217408341953
IRIDIUM 163             
1 43575U 18061G   25034.57697263  .00000463  00000+0  15829-3 0  9999
2 43575  86.3932 265.0562 0001984  88.6400 271.5023 14.34218453341914
IRIDIUM 156             
1 43576U 18061H   25034.69111875  .00000537  00000+0  18450-3 0  9998
2 43576  86.3932 265.0155 0002389  92.1574 267.9895 14.34225863341914
IRIDIUM 164             
1 43577U 18061J   25034.67209751  .00000537  00000+0  18474-3 0  9994
2 43577  86.3932 265.0558 0002050  79.4485 280.6942 14.34224250341965
